CCSDS_OMM_VERS = 2.0
CREATION_DATE  = 
ORIGINATOR     = 

OBJECT_NAME    = UNKNOWN
OBJECT_ID      = 
CENTER_NAME    = EARTH
REF_FRAME      = TEME
TIME_SYSTEM    = UTC
MEAN_ELEMENT_THEORY = SGP/SGP4

EPOCH          = 2026-03-17T05:31:43.075488
MEAN_MOTION    = 14.06293023
ECCENTRICITY   = .0170692
INCLINATION    = 99.9526
RA_OF_ASC_NODE = 82.1290
ARG_OF_PERICENTER = 275.0996
MEAN_ANOMALY   = 83.0707

EPHEMERIS_TYPE = 0
CLASSIFICATION_TYPE = U
NORAD_CAT_ID   = 87565
ELEMENT_SET_NO = 999
REV_AT_EPOCH   = 62971
BSTAR          = .68034E-3
MEAN_MOTION_DOT = .1225E-4
MEAN_MOTION_DDOT = 0

CCSDS_OMM_VERS = 2.0
CREATION_DATE  = 
ORIGINATOR     = 

OBJECT_NAME    = UNKNOWN
OBJECT_ID      = 
CENTER_NAME    = EARTH
REF_FRAME      = TEME
TIME_SYSTEM    = UTC
MEAN_ELEMENT_THEORY = SGP/SGP4

EPOCH          = 2026-03-23T08:33:52.330752
MEAN_MOTION    = 12.68544978
ECCENTRICITY   = .005572
INCLINATION    = 101.9961
RA_OF_ASC_NODE = 268.6013
ARG_OF_PERICENTER = 56.2335
MEAN_ANOMALY   = 63.4146

EPHEMERIS_TYPE = 0
CLASSIFICATION_TYPE = U
NORAD_CAT_ID   = 87569
ELEMENT_SET_NO = 999
REV_AT_EPOCH   = 57122
BSTAR          = .40659E-4
MEAN_MOTION_DOT = -.4E-6
MEAN_MOTION_DDOT = 0

CCSDS_OMM_VERS = 2.0
CREATION_DATE  = 
ORIGINATOR     = 

OBJECT_NAME    = UNKNOWN
OBJECT_ID      = 
CENTER_NAME    = EARTH
REF_FRAME      = TEME
TIME_SYSTEM    = UTC
MEAN_ELEMENT_THEORY = SGP/SGP4

EPOCH          = 2026-03-14T08:53:42.545184
MEAN_MOTION    = 14.10460805
ECCENTRICITY   = .0026814
INCLINATION    = 98.7749
RA_OF_ASC_NODE = 113.3642
ARG_OF_PERICENTER = 27.3449
MEAN_ANOMALY   = 349.2031

EPHEMERIS_TYPE = 0
CLASSIFICATION_TYPE = U
NORAD_CAT_ID   = 87590
ELEMENT_SET_NO = 999
REV_AT_EPOCH   = 16716
BSTAR          = .34184E-3
MEAN_MOTION_DOT = .567E-5
MEAN_MOTION_DDOT = 0

CCSDS_OMM_VERS = 2.0
CREATION_DATE  = 
ORIGINATOR     = 

OBJECT_NAME    = UNKNOWN
OBJECT_ID      = 
CENTER_NAME    = EARTH
REF_FRAME      = TEME
TIME_SYSTEM    = UTC
MEAN_ELEMENT_THEORY = SGP/SGP4

EPOCH          = 2026-03-23T09:49:43.092192
MEAN_MOTION    = 12.47031508
ECCENTRICITY   = .0628794
INCLINATION    = 66.0361
RA_OF_ASC_NODE = 310.6014
ARG_OF_PERICENTER = 95.4281
MEAN_ANOMALY   = 78.2061

EPHEMERIS_TYPE = 0
CLASSIFICATION_TYPE = U
NORAD_CAT_ID   = 87616
ELEMENT_SET_NO = 999
REV_AT_EPOCH   = 54878
BSTAR          = .42996E-2
MEAN_MOTION_DOT = .1226E-4
MEAN_MOTION_DDOT = 0

CCSDS_OMM_VERS = 2.0
CREATION_DATE  = 
ORIGINATOR     = 

OBJECT_NAME    = UNKNOWN
OBJECT_ID      = 
CENTER_NAME    = EARTH
REF_FRAME      = TEME
TIME_SYSTEM    = UTC
MEAN_ELEMENT_THEORY = SGP/SGP4

EPOCH          = 2026-03-23T14:44:39.725088
MEAN_MOTION    = 14.71465114
ECCENTRICITY   = .0094394
INCLINATION    = 98.6915
RA_OF_ASC_NODE = 31.6304
ARG_OF_PERICENTER = 293.3892
MEAN_ANOMALY   = 65.7406

EPHEMERIS_TYPE = 0
CLASSIFICATION_TYPE = U
NORAD_CAT_ID   = 87624
ELEMENT_SET_NO = 999
REV_AT_EPOCH   = 59510
BSTAR          = .916E-3
MEAN_MOTION_DOT = .603E-4
MEAN_MOTION_DDOT = 0

CCSDS_OMM_VERS = 2.0
CREATION_DATE  = 
ORIGINATOR     = 

OBJECT_NAME    = UNKNOWN
OBJECT_ID      = 
CENTER_NAME    = EARTH
REF_FRAME      = TEME
TIME_SYSTEM    = UTC
MEAN_ELEMENT_THEORY = SGP/SGP4

EPOCH          = 2026-03-20T21:50:37.927680
MEAN_MOTION    = 14.28340779
ECCENTRICITY   = .0055217
INCLINATION    = 70.8576
RA_OF_ASC_NODE = 154.4906
ARG_OF_PERICENTER = 125.0426
MEAN_ANOMALY   = 235.5901

EPHEMERIS_TYPE = 0
CLASSIFICATION_TYPE = U
NORAD_CAT_ID   = 87672
ELEMENT_SET_NO = 999
REV_AT_EPOCH   = 63847
BSTAR          = .63902E-3
MEAN_MOTION_DOT = .1573E-4
MEAN_MOTION_DDOT = 0

CCSDS_OMM_VERS = 2.0
CREATION_DATE  = 
ORIGINATOR     = 

OBJECT_NAME    = UNKNOWN
OBJECT_ID      = 
CENTER_NAME    = EARTH
REF_FRAME      = TEME
TIME_SYSTEM    = UTC
MEAN_ELEMENT_THEORY = SGP/SGP4

EPOCH          = 2026-03-23T15:48:01.227456
MEAN_MOTION    = 13.71359907
ECCENTRICITY   = .0148986
INCLINATION    = 66.7384
RA_OF_ASC_NODE = 219.5929
ARG_OF_PERICENTER = 93.1995
MEAN_ANOMALY   = 268.6131

EPHEMERIS_TYPE = 0
CLASSIFICATION_TYPE = U
NORAD_CAT_ID   = 87681
ELEMENT_SET_NO = 999
REV_AT_EPOCH   = 61567
BSTAR          = .97778E-3
MEAN_MOTION_DOT = .878E-5
MEAN_MOTION_DDOT = 0

CCSDS_OMM_VERS = 2.0
CREATION_DATE  = 
ORIGINATOR     = 

OBJECT_NAME    = UNKNOWN
OBJECT_ID      = 
CENTER_NAME    = EARTH
REF_FRAME      = TEME
TIME_SYSTEM    = UTC
MEAN_ELEMENT_THEORY = SGP/SGP4

EPOCH          = 2026-03-23T06:44:21.081984
MEAN_MOTION    = 14.01660965
ECCENTRICITY   = .0582544
INCLINATION    = 65.7905
RA_OF_ASC_NODE = 92.3234
ARG_OF_PERICENTER = 355.9714
MEAN_ANOMALY   = 3.6771

EPHEMERIS_TYPE = 0
CLASSIFICATION_TYPE = U
NORAD_CAT_ID   = 87690
ELEMENT_SET_NO = 999
REV_AT_EPOCH   = 62146
BSTAR          = .12384E-2
MEAN_MOTION_DOT = .8676E-4
MEAN_MOTION_DDOT = 0

CCSDS_OMM_VERS = 2.0
CREATION_DATE  = 
ORIGINATOR     = 

OBJECT_NAME    = UNKNOWN
OBJECT_ID      = 
CENTER_NAME    = EARTH
REF_FRAME      = TEME
TIME_SYSTEM    = UTC
MEAN_ELEMENT_THEORY = SGP/SGP4

EPOCH          = 2026-03-23T12:05:12.240960
MEAN_MOTION    = 14.65402028
ECCENTRICITY   = .0102665
INCLINATION    = 98.6760
RA_OF_ASC_NODE = 276.5834
ARG_OF_PERICENTER = 315.5020
MEAN_ANOMALY   = 73.6941

EPHEMERIS_TYPE = 0
CLASSIFICATION_TYPE = U
NORAD_CAT_ID   = 87706
ELEMENT_SET_NO = 999
REV_AT_EPOCH   = 59327
BSTAR          = .62547E-3
MEAN_MOTION_DOT = .3595E-4
MEAN_MOTION_DDOT = 0

CCSDS_OMM_VERS = 2.0
CREATION_DATE  = 
ORIGINATOR     = 

OBJECT_NAME    = UNKNOWN
OBJECT_ID      = 
CENTER_NAME    = EARTH
REF_FRAME      = TEME
TIME_SYSTEM    = UTC
MEAN_ELEMENT_THEORY = SGP/SGP4

EPOCH          = 2026-03-23T11:39:35.355168
MEAN_MOTION    = 15.12404420
ECCENTRICITY   = .0005326
INCLINATION    = 82.8717
RA_OF_ASC_NODE = 162.9597
ARG_OF_PERICENTER = 126.1291
MEAN_ANOMALY   = 234.0434

EPHEMERIS_TYPE = 0
CLASSIFICATION_TYPE = U
NORAD_CAT_ID   = 87725
ELEMENT_SET_NO = 999
REV_AT_EPOCH   = 64906
BSTAR          = .53608E-2
MEAN_MOTION_DOT = .94198E-3
MEAN_MOTION_DDOT = 0

CCSDS_OMM_VERS = 2.0
CREATION_DATE  = 
ORIGINATOR     = 

OBJECT_NAME    = UNKNOWN
OBJECT_ID      = 
CENTER_NAME    = EARTH
REF_FRAME      = TEME
TIME_SYSTEM    = UTC
MEAN_ELEMENT_THEORY = SGP/SGP4

EPOCH          = 2026-03-20T11:56:36.066624
MEAN_MOTION    = 13.74523561
ECCENTRICITY   = .0031398
INCLINATION    = 82.9484
RA_OF_ASC_NODE = 161.7897
ARG_OF_PERICENTER = 91.9887
MEAN_ANOMALY   = 268.4865

EPHEMERIS_TYPE = 0
CLASSIFICATION_TYPE = U
NORAD_CAT_ID   = 87730
ELEMENT_SET_NO = 999
REV_AT_EPOCH   = 59876
BSTAR          = .84462E-4
MEAN_MOTION_DOT = .96E-6
MEAN_MOTION_DDOT = 0

CCSDS_OMM_VERS = 2.0
CREATION_DATE  = 
ORIGINATOR     = 

OBJECT_NAME    = UNKNOWN
OBJECT_ID      = 
CENTER_NAME    = EARTH
REF_FRAME      = TEME
TIME_SYSTEM    = UTC
MEAN_ELEMENT_THEORY = SGP/SGP4

EPOCH          = 2026-03-20T14:45:59.516352
MEAN_MOTION    = 13.72359179
ECCENTRICITY   = .0132383
INCLINATION    = 99.3634
RA_OF_ASC_NODE = 314.2381
ARG_OF_PERICENTER = 294.7270
MEAN_ANOMALY   = 64.0147

EPHEMERIS_TYPE = 0
CLASSIFICATION_TYPE = U
NORAD_CAT_ID   = 87737
ELEMENT_SET_NO = 999
REV_AT_EPOCH   = 61728
BSTAR          = .88626E-4
MEAN_MOTION_DOT = .42E-6
MEAN_MOTION_DDOT = 0

