UNKNOWN                 
1 87565U          26076.23035967  .00001225  00000+0  68034-3 0  9990
2 87565  99.9526  82.1290 0170692 275.0996  83.0707 14.06293023629718
UNKNOWN                 
1 87569U          26082.35685568 -.00000040  00000+0  40659-4 0  9991
2 87569 101.9961 268.6013 0055720  56.2335  63.4146 12.68544978571228
UNKNOWN                 
1 87590U          26073.37063131  .00000567  00000+0  34184-3 0  9991
2 87590  98.7749 113.3642 0026814  27.3449 349.2031 14.10460805167167
UNKNOWN                 
1 87616U          26082.40952653  .00001226  00000+0  42996-2 0  9992
2 87616  66.0361 310.6014 0628794  95.4281  78.2061 12.47031508548789
UNKNOWN                 
1 87624U          26082.61434867  .00006030  00000+0  91600-3 0  9991
2 87624  98.6915  31.6304 0094394 293.3892  65.7406 14.71465114595101
UNKNOWN                 
1 87672U          26079.91016120  .00001573  00000+0  63902-3 0  9992
2 87672  70.8576 154.4906 0055217 125.0426 235.5901 14.28340779638472
UNKNOWN                 
1 87681U          26082.65834754  .00000878  00000+0  97778-3 0  9993
2 87681  66.7384 219.5929 0148986  93.1995 268.6131 13.71359907615672
UNKNOWN                 
1 87690U          26082.28079956  .00008676  00000+0  12384-2 0  9990
2 87690  65.7905  92.3234 0582544 355.9714   3.6771 14.01660965621460
UNKNOWN                 
1 87706U          26082.50361390  .00003595  00000+0  62547-3 0  9991
2 87706  98.6760 276.5834 0102665 315.5020  73.6941 14.65402028593275
UNKNOWN                 
1 87725U          26082.48582587  .00094198  00000+0  53608-2 0  9998
2 87725  82.8717 162.9597 0005326 126.1291 234.0434 15.12404420649069
UNKNOWN                 
1 87730U          26079.49763966  .00000096  00000+0  84462-4 0  9991
2 87730  82.9484 161.7897 0031398  91.9887 268.4865 13.74523561598768
UNKNOWN                 
1 87737U          26079.61527218  .00000042  00000+0  88626-4 0  9997
2 87737  99.3634 314.2381 0132383 294.7270  64.0147 13.72359179617284
